O3B MPOWER F1           
1 54755U 22174A   24023.91813352 -.00000026  00000+0  00000+0 0  9992
2 54755   0.0596  11.7971 0006227 302.9245 219.6367  5.00118459 21556
